{
  "norad_id": 68498,
  "name": "TRANSPORTER-16 OBJECT CL",
  "history": [
    {
      "epoch": "2026-04-13T22:15:32.586336Z",
      "apogee_km": 594.7385353819091,
      "perigee_km": 593.5517135186838,
      "latitude_deg": 4.234426873066685e-05,
      "longitude_deg": -112.81799762826509,
      "height_km": 596.9288597741373,
      "semi_major_axis_km": 6972.282124450296,
      "eccentricity": 8.511e-05,
      "inclination_deg": 97.7494,
      "raan_deg": 63.179,
      "arg_perigee_deg": 295.8274,
      "mean_anomaly_deg": 64.2857,
      "mean_motion_rev_day": 14.91215242
    }
  ]
}